[{"OBJECT_NAME":"STARLINK-5544","OBJECT_ID":"2023-028S","EPOCH":"2026-03-09T21:40:37.978176","MEAN_MOTION":14.98341992,"ECCENTRICITY":0.00026957,"INCLINATION":69.9996,"RA_OF_ASC_NODE":243.8549,"ARG_OF_PERICENTER":272.5418,"MEAN_ANOMALY":87.5432,"EPHEMERIS_TYPE":0,"CLASSIFICATION_TYPE":"U","NORAD_CAT_ID":55757,"ELEMENT_SET_NO":999,"REV_AT_EPOCH":16607,"BSTAR":6.5475778e-5,"MEAN_MOTION_DOT":6.89e-6,"MEAN_MOTION_DDOT":0},{"OBJECT_NAME":"HAWK-8B","OBJECT_ID":"2024-066D","EPOCH":"2026-03-09T11:23:00.219840","MEAN_MOTION":14.98769819,"ECCENTRICITY":0.00042801,"INCLINATION":45.6192,"RA_OF_ASC_NODE":73.7012,"ARG_OF_PERICENTER":258.0487,"MEAN_ANOMALY":101.9914,"EPHEMERIS_TYPE":0,"CLASSIFICATION_TYPE":"U","NORAD_CAT_ID":59445,"ELEMENT_SET_NO":999,"REV_AT_EPOCH":10486,"BSTAR":0.00021132759,"MEAN_MOTION_DOT":2.353e-5,"MEAN_MOTION_DDOT":0}]
